NOAA 1 [-]              
1 04793U 70106A   18338.17279715 -.00000041  00000-0  25528-4 0  9991
2 04793 101.7329  44.0898 0031482 305.9228 108.5110 12.53987617196212
NOAA 2 (ITOS-D) [-]     
1 06235U 72082A   18338.47331501 -.00000041  00000-0  22333-4 0  9995
2 06235 101.7654 301.5715 0004322  34.2969  73.2660 12.53110344110491
NOAA 3 [-]              
1 06920U 73086A   18338.57195199 -.00000039  00000-0  43182-4 0  9995
2 06920 102.0212 304.8366 0006255 156.4169 308.4076 12.40346897 40935
NOAA 4 [-]              
1 07529U 74089A   18338.46675713 -.00000032  00000-0  77990-4 0  9995
2 07529 101.7231 303.4388 0009166  64.2776  44.7751 12.53123720 15081
NOAA 5 [-]              
1 09057U 76077A   18338.47387696 -.00000045  00000-0 -87563-5 0  9996
2 09057 101.9033 309.6049 0010161  11.8267 103.0327 12.37756760914234
TIROS N [P]             
1 11060U 78096A   18337.76546052  .00000008  00000-0  25656-4 0  9991
2 11060  98.8210  31.6752 0009739 250.1477 109.8648 14.18216654288750
NOAA 6 [P]              
1 11416U 79057A   18338.48808035  .00000029  00000-0  26509-4 0  9997
2 11416  98.6244 328.1247 0011380 105.5672 254.6769 14.33507272 56761
NOAA 7 [-]              
1 12553U 81059A   18338.53115345 -.00000040  00000-0  33157-5 0  9998
2 12553  99.0936 336.3572 0011532 174.2030 295.5645 14.17250737935169
NOAA 8 [-]              
1 13923U 83022A   18338.51197787  .00000005  00000-0  19344-4 0  9991
2 13923  98.5628 322.2093 0015874  34.5761 325.6450 14.28659338858331
NOAA 9 [P]              
1 15427U 84123A   18338.44705065 -.00000018  00000-0  13416-4 0  9990
2 15427  98.8673 282.9805 0013985 231.8954 235.2183 14.16053433754127
NOAA 10 [-]             
1 16969U 86073A   18338.55948707  .00000010  00000-0  21028-4 0  9991
2 16969  98.4706 335.8481 0012848 138.4825 327.2648 14.28058038676845
NOAA 11 [-]             
1 19531U 88089A   18338.10990649 -.00000017  00000-0  12558-4 0  9997
2 19531  98.4759  17.4098 0010246 303.8043  56.2156 14.15234029558415
NOAA 12 [-]             
1 21263U 91032A   18338.50652948 -.00000006  00000-0  15417-4 0  9990
2 21263  98.5276 354.2559 0014161 152.9954 207.1966 14.25881411433011
NOAA 13 [-]             
1 22739U 93050A   18338.48473087 -.00000015  00000-0  13768-4 0  9990
2 22739  98.4923   6.5987 0010633  84.1408 276.0977 14.12718424305014
NOAA 14 [-]             
1 23455U 94089A   18338.58446286 -.00000016  00000-0  13674-4 0  9998
2 23455  98.6262  41.9500 0010446  69.1544 291.0747 14.14123384234502
NOAA 15 [B]             
1 25338U 98030A   18338.49921029  .00000039  00000-0  34913-4 0  9996
2 25338  98.7612 354.9776 0011516  92.9358 267.3140 14.25886035 69298
NOAA 16 [-]             
1 26536U 00055A   18338.53909338 -.00000013  00000-0  16256-4 0  9994
2 26536  98.8002  49.0361 0009695 238.8637 121.1585 14.13217840938510
NOAA 17 [-]             
1 27453U 02032A   18338.58286748 -.00000009  00000-0  14340-4 0  9995
2 27453  98.5107 289.6124 0012802  75.2864 284.9734 14.25026901855027
NOAA 18 [B]             
1 28654U 05018A   18338.55065278  .00000016  00000-0  33763-4 0  9993
2 28654  99.1254  17.3006 0014367  13.0994 347.0547 14.12391409697838
NOAA 19 [+]             
1 33591U 09005A   18338.52320489  .00000070  00000-0  63461-4 0  9992
2 33591  99.1619 320.0961 0013470 205.4855 154.5653 14.12321334506210
SUOMI NPP [+]           
1 37849U 11061A   18338.49590319 -.00000007  00000-0  17576-4 0  9991
2 37849  98.7165 274.5305 0001599  79.7775  29.1102 14.19550584368038
NOAA 20 [+]             
1 43013U 17073A   18338.57969608 -.00000002  00000-0  19889-4 0  9994
2 43013  98.7421 274.4929 0001424  92.2554 267.8785 14.19553573 54082
